start=new Date('2022-10-24T00:00:00.000Z').valueOf();
sats=[{"EPOCH":"2022-10-23T15:57:11.793312","INCLINATION":"53.0550","MEAN_MOTION_DDOT":"0.0000000000000","ELEMENT_SET_NO":"999","PERIOD":"95.591","MEAN_MOTION_DOT":"0.00004212","TLE_LINE1":"1 47174U 20088BE  22296.66471983  .00004212  00000-0  30137-3 0  9992","MEAN_ANOMALY":"266.9411","DECAY_DATE":null,"REF_FRAME":"TEME","CENTER_NAME":"EARTH","MEAN_ELEMENT_THEORY":"SGP4","BSTAR":"0.00030137000000","SITE":"AFETR","SEMIMAJOR_AXIS":"6925.295","LAUNCH_DATE":"2020-11-25","PERIAPSIS":"546.244","RA_OF_ASC_NODE":"76.8718","ARG_OF_PERICENTER":"93.1729","NORAD_CAT_ID":"47174","APOAPSIS":"548.076","OBJECT_TYPE":"PAYLOAD","TLE_LINE2":"2 47174  53.0550  76.8718 0001323  93.1729 266.9411 15.06417499105999","CLASSIFICATION_TYPE":"U","ECCENTRICITY":"0.00013230","TIME_SYSTEM":"UTC","GP_ID":"215994227","OBJECT_NAME":"STARLINK-1891","EPHEMERIS_TYPE":"0","OBJECT_ID":"2020-088BE","MEAN_MOTION":"15.06417499","COUNTRY_CODE":"US","FILE":"3630604","RCS_SIZE":"LARGE","REV_AT_EPOCH":"10599"},{"CENTER_NAME":"EARTH","MEAN_ELEMENT_THEORY":"SGP4","BSTAR":"0.00022639000000","SITE":"AFETR","SEMIMAJOR_AXIS":"6925.319","LAUNCH_DATE":"2020-11-25","PERIAPSIS":"546.166","EPOCH":"2022-10-23T17:30:04.245984","INCLINATION":"53.0544","MEAN_MOTION_DDOT":"0.0000000000000","ELEMENT_SET_NO":"999","PERIOD":"95.592","MEAN_MOTION_DOT":"0.00003093","TLE_LINE1":"1 47175U 20088BF  22296.72921581  .00003093  00000-0  22639-3 0  9998","MEAN_ANOMALY":"278.5184","DECAY_DATE":null,"REF_FRAME":"TEME","OBJECT_NAME":"STARLINK-1895","EPHEMERIS_TYPE":"0","OBJECT_ID":"2020-088BF","MEAN_MOTION":"15.06409492","COUNTRY_CODE":"US","FILE":"3630604","RCS_SIZE":"LARGE","REV_AT_EPOCH":"10628","ARG_OF_PERICENTER":"81.5971","RA_OF_ASC_NODE":"56.6002","NORAD_CAT_ID":"47175","APOAPSIS":"548.202","TLE_LINE2":"2 47175  53.0544  56.6002 0001470  81.5971 278.5184 15.06409492106281","CLASSIFICATION_TYPE":"U","OBJECT_TYPE":"PAYLOAD","ECCENTRICITY":"0.00014700","TIME_SYSTEM":"UTC","GP_ID":"215994979"},{"BSTAR":"-0.00040056000000","LAUNCH_DATE":"2020-11-25","PERIAPSIS":"545.932","SEMIMAJOR_AXIS":"6925.227","SITE":"AFETR","MEAN_ELEMENT_THEORY":"SGP4","CENTER_NAME":"EARTH","ELEMENT_SET_NO":"999","PERIOD":"95.590","REF_FRAME":"TEME","MEAN_MOTION_DOT":"-0.00006249","TLE_LINE1":"1 47177U 20088BH  22296.77988641 -.00006249  00000-0 -40056-3 0  9996","MEAN_ANOMALY":"275.9542","DECAY_DATE":null,"INCLINATION":"53.0555","EPOCH":"2022-10-23T18:43:02.185824","MEAN_MOTION_DDOT":"0.0000000000000","COUNTRY_CODE":"US","FILE":"3630504","REV_AT_EPOCH":"10644","RCS_SIZE":"LARGE","OBJECT_NAME":"STARLINK-1907","OBJECT_ID":"2020-088BH","MEAN_MOTION":"15.06439540","EPHEMERIS_TYPE":"0","ECCENTRICITY":"0.00016750","TIME_SYSTEM":"UTC","GP_ID":"215970328","RA_OF_ASC_NODE":"66.3752","ARG_OF_PERICENTER":"84.1638","NORAD_CAT_ID":"47177","CLASSIFICATION_TYPE":"U","TLE_LINE2":"2 47177  53.0555  66.3752 0001675  84.1638 275.9542 15.06439540106445","OBJECT_TYPE":"PAYLOAD","APOAPSIS":"548.252"},{"RCS_SIZE":"LARGE","REV_AT_EPOCH":"10600","FILE":"3630604","COUNTRY_CODE":"US","EPHEMERIS_TYPE":"0","MEAN_MOTION":"15.06401393","OBJECT_ID":"2020-088BJ","OBJECT_NAME":"STARLINK-1912","GP_ID":"215993977","TIME_SYSTEM":"UTC","ECCENTRICITY":"0.00012890","APOAPSIS":"548.102","TLE_LINE2":"2 47178  53.0567  76.4633 0001289 105.4968 254.6164 15.06401393106004","CLASSIFICATION_TYPE":"U","OBJECT_TYPE":"PAYLOAD","NORAD_CAT_ID":"47178","RA_OF_ASC_NODE":"76.4633","ARG_OF_PERICENTER":"105.4968","SEMIMAJOR_AXIS":"6925.344","SITE":"AFETR","PERIAPSIS":"546.317","LAUNCH_DATE":"2020-11-25","BSTAR":"0.00005504000000","CENTER_NAME":"EARTH","MEAN_ELEMENT_THEORY":"SGP4","MEAN_ANOMALY":"254.6164","DECAY_DATE":null,"TLE_LINE1":"1 47178U 20088BJ  22296.76055241  .00000539  00000-0  55040-4 0  9991","MEAN_MOTION_DOT":"0.00000539","REF_FRAME":"TEME","PERIOD":"95.592","ELEMENT_SET_NO":"999","MEAN_MOTION_DDOT":"0.0000000000000","EPOCH":"2022-10-23T18:15:11.728224","INCLINATION":"53.0567"},{"APOAPSIS":"548.585","TLE_LINE2":"2 47179  53.0543  86.8132 0002003  96.4534 263.6683 15.06405040105852","OBJECT_TYPE":"PAYLOAD","CLASSIFICATION_TYPE":"U","ARG_OF_PERICENTER":"96.4534","RA_OF_ASC_NODE":"86.8132","NORAD_CAT_ID":"47179","GP_ID":"215994728","TIME_SYSTEM":"UTC","ECCENTRICITY":"0.00020030","EPHEMERIS_TYPE":"0","OBJECT_ID":"2020-088BK","MEAN_MOTION":"15.06405040","OBJECT_NAME":"STARLINK-1913","FILE":"3630604","RCS_SIZE":"LARGE","REV_AT_EPOCH":"10585","COUNTRY_CODE":"US","MEAN_MOTION_DDOT":"0.0000000000000","EPOCH":"2022-10-23T16:22:24.180384","INCLINATION":"53.0543","TLE_LINE1":"1 47179U 20088BK  22296.68222431  .00000822  00000-0  74077-4 0  9996","MEAN_MOTION_DOT":"0.00000822","MEAN_ANOMALY":"263.6683","DECAY_DATE":null,"REF_FRAME":"TEME","ELEMENT_SET_NO":"999","PERIOD":"95.592","CENTER_NAME":"EARTH","MEAN_ELEMENT_THEORY":"SGP4","SEMIMAJOR_AXIS":"6925.333","SITE":"AFETR","LAUNCH_DATE":"2020-11-25","PERIAPSIS":"545.811","BSTAR":"0.00007407700000"},{"NORAD_CAT_ID":"47181","ARG_OF_PERICENTER":"81.9552","RA_OF_ASC_NODE":"56.6383","APOAPSIS":"548.138","OBJECT_TYPE":"PAYLOAD","TLE_LINE2":"2 47181  53.0539  56.6383 0001391  81.9552 278.1595 15.06412652106278","CLASSIFICATION_TYPE":"U","ECCENTRICITY":"0.00013910","TIME_SYSTEM":"UTC","GP_ID":"215994479","OBJECT_NAME":"STARLINK-1927","EPHEMERIS_TYPE":"0","MEAN_MOTION":"15.06412652","OBJECT_ID":"2020-088BM","COUNTRY_CODE":"US","REV_AT_EPOCH":"10627","RCS_SIZE":"LARGE","FILE":"3630604","EPOCH":"2022-10-23T17:19:27.560064","INCLINATION":"53.0539","MEAN_MOTION_DDOT":"0.0000000000000","PERIOD":"95.591","ELEMENT_SET_NO":"999","MEAN_ANOMALY":"278.1595","DECAY_DATE":null,"TLE_LINE1":"1 47181U 20088BM  22296.72184676  .00006405  00000-0  44834-3 0  9992","MEAN_MOTION_DOT":"0.00006405","REF_FRAME":"TEME","CENTER_NAME":"EARTH","MEAN_ELEMENT_THEORY":"SGP4","BSTAR":"0.00044834000000","SITE":"AFETR","SEMIMAJOR_AXIS":"6925.310","PERIAPSIS":"546.211","LAUNCH_DATE":"2020-11-25"},{"REF_FRAME":"TEME","MEAN_ANOMALY":"274.0275","DECAY_DATE":null,"MEAN_MOTION_DOT":"0.00000745","TLE_LINE1":"1 47350U 21005B   22296.82689160  .00000745  00000-0  68869-4 0  9995","PERIOD":"95.591","ELEMENT_SET_NO":"999","MEAN_MOTION_DDOT":"0.0000000000000","INCLINATION":"53.0547","EPOCH":"2022-10-23T19:50:43.434240","PERIAPSIS":"546.285","LAUNCH_DATE":"2021-01-20","SITE":"AFETR","SEMIMAJOR_AXIS":"6925.304","BSTAR":"0.00006886900000","MEAN_ELEMENT_THEORY":"SGP4","CENTER_NAME":"EARTH","GP_ID":"215993494","ECCENTRICITY":"0.00012770","TIME_SYSTEM":"UTC","TLE_LINE2":"2 47350  53.0547 196.1653 0001277  86.0860 274.0275 15.06414485 97226","OBJECT_TYPE":"PAYLOAD","CLASSIFICATION_TYPE":"U","APOAPSIS":"548.054","NORAD_CAT_ID":"47350","RA_OF_ASC_NODE":"196.1653","ARG_OF_PERICENTER":"86.0860","RCS_SIZE":"LARGE","REV_AT_EPOCH":"9722","FILE":"3630604","COUNTRY_CODE":"US","MEAN_MOTION":"15.06414485","OBJECT_ID":"2021-005B","EPHEMERIS_TYPE":"0","OBJECT_NAME":"STARLINK-2011"},{"TIME_SYSTEM":"UTC","ECCENTRICITY":"0.00016480","GP_ID":"215994245","ARG_OF_PERICENTER":"126.3965","RA_OF_ASC_NODE":"156.9110","NORAD_CAT_ID":"47351","TLE_LINE2":"2 47351  53.0552 156.9110 0001648 126.3965 233.7176 15.06393845 97757","OBJECT_TYPE":"PAYLOAD","CLASSIFICATION_TYPE":"U","APOAPSIS":"548.374","COUNTRY_CODE":"US","FILE":"3630604","REV_AT_EPOCH":"9775","RCS_SIZE":"LARGE","OBJECT_NAME":"STARLINK-2017","OBJECT_ID":"2021-005C","MEAN_MOTION":"15.06393845","EPHEMERIS_TYPE":"0","ELEMENT_SET_NO":"999","PERIOD":"95.593","REF_FRAME":"TEME","TLE_LINE1":"1 47351U 21005C   22296.65639831  .00002678  00000-0  19867-3 0  9997","MEAN_MOTION_DOT":"0.00002678","DECAY_DATE":null,"MEAN_ANOMALY":"233.7176","INCLINATION":"53.0552","EPOCH":"2022-10-23T15:45:12.813984","MEAN_MOTION_DDOT":"0.0000000000000","BSTAR":"0.00019867000000","LAUNCH_DATE":"2021-01-20","PERIAPSIS":"546.091","SEMIMAJOR_AXIS":"6925.367","SITE":"AFETR","MEAN_ELEMENT_THEORY":"SGP4","CENTER_NAME":"EARTH"},{"REF_FRAME":"TEME","MEAN_MOTION_DOT":"0.00002515","TLE_LINE1":"1 47352U 21005D   22296.74211199  .00002515  00000-0  18762-3 0  9994","MEAN_ANOMALY":"265.8951","DECAY_DATE":null,"ELEMENT_SET_NO":"999","PERIOD":"95.591","MEAN_MOTION_DDOT":"0.0000000000000","INCLINATION":"53.0549","EPOCH":"2022-10-23T17:48:38.475936","LAUNCH_DATE":"2021-01-20","PERIAPSIS":"546.141","SEMIMAJOR_AXIS":"6925.310","SITE":"AFETR","BSTAR":"0.00018762000000","MEAN_ELEMENT_THEORY":"SGP4","CENTER_NAME":"EARTH","GP_ID":"215994997","ECCENTRICITY":"0.00014930","TIME_SYSTEM":"UTC","OBJECT_TYPE":"PAYLOAD","TLE_LINE2":"2 47352  53.0549 196.5441 0001493  94.2209 265.8951 15.06412609 97200","CLASSIFICATION_TYPE":"U","APOAPSIS":"548.209","ARG_OF_PERICENTER":"94.2209","RA_OF_ASC_NODE":"196.5441","NORAD_CAT_ID":"47352","FILE":"3630604","RCS_SIZE":"LARGE","REV_AT_EPOCH":"9720","COUNTRY_CODE":"US","OBJECT_ID":"2021-005D","MEAN_MOTION":"15.06412609","EPHEMERIS_TYPE":"0","OBJECT_NAME":"STARLINK-2034"},{"NORAD_CAT_ID":"47353","ARG_OF_PERICENTER":"109.4026","RA_OF_ASC_NODE":"141.4484","APOAPSIS":"548.298","CLASSIFICATION_TYPE":"U","TLE_LINE2":"2 47353  53.0546 141.4484 0001563 109.4026 250.7132 15.06399373 97989","OBJECT_TYPE":"PAYLOAD","TIME_SYSTEM":"UTC","ECCENTRICITY":"0.00015630","GP_ID":"215993745","OBJECT_NAME":"STARLINK-2045","EPHEMERIS_TYPE":"0","MEAN_MOTION":"15.06399373","OBJECT_ID":"2021-005E","COUNTRY_CODE":"US","REV_AT_EPOCH":"9798","RCS_SIZE":"LARGE","FILE":"3630604","EPOCH":"2022-10-23T18:19:50.538432","INCLINATION":"53.0546","MEAN_MOTION_DDOT":"0.0000000000000","PERIOD":"95.592","ELEMENT_SET_NO":"999","MEAN_ANOMALY":"250.7132","DECAY_DATE":null,"MEAN_MOTION_DOT":"0.00000555","TLE_LINE1":"1 47353U 21005E   22296.76377938  .00000555  00000-0  56127-4 0  9991","REF_FRAME":"TEME","CENTER_NAME":"EARTH","MEAN_ELEMENT_THEORY":"SGP4","BSTAR":"0.00005612700000","SITE":"AFETR","SEMIMAJOR_AXIS":"6925.350","PERIAPSIS":"546.133","LAUNCH_DATE":"2021-01-20"}];
